[{"OBJECT_NAME":"YUNHAI-2 01A","OBJECT_ID":"2018-112A","EPOCH":"2026-03-09T22:34:33.618432","MEAN_MOTION":14.28975171,"ECCENTRICITY":4.652e-5,"INCLINATION":50.0087,"RA_OF_ASC_NODE":105.4873,"ARG_OF_PERICENTER":228.8508,"MEAN_ANOMALY":131.2367,"EPHEMERIS_TYPE":0,"CLASSIFICATION_TYPE":"U","NORAD_CAT_ID":43909,"ELEMENT_SET_NO":999,"REV_AT_EPOCH":37689,"BSTAR":7.7064636e-5,"MEAN_MOTION_DOT":3.5e-7,"MEAN_MOTION_DDOT":0},{"OBJECT_NAME":"CZ-6A DEB","OBJECT_ID":"2024-140XQ","EPOCH":"2026-03-09T13:44:38.705280","MEAN_MOTION":14.07494457,"ECCENTRICITY":0.0106363,"INCLINATION":88.95,"RA_OF_ASC_NODE":284.2225,"ARG_OF_PERICENTER":166.7127,"MEAN_ANOMALY":193.6898,"EPHEMERIS_TYPE":0,"CLASSIFICATION_TYPE":"U","NORAD_CAT_ID":61399,"ELEMENT_SET_NO":999,"REV_AT_EPOCH":7684,"BSTAR":0.000244,"MEAN_MOTION_DOT":4.47e-6,"MEAN_MOTION_DDOT":0}]
